[{"OBJECT_NAME":"GAOFEN-3 02","OBJECT_ID":"2021-109A","EPOCH":"2026-03-09T23:26:55.915584","MEAN_MOTION":14.42215794,"ECCENTRICITY":0.00015915,"INCLINATION":98.4134,"RA_OF_ASC_NODE":78.4682,"ARG_OF_PERICENTER":307.7744,"MEAN_ANOMALY":52.3302,"EPHEMERIS_TYPE":0,"CLASSIFICATION_TYPE":"U","NORAD_CAT_ID":49495,"ELEMENT_SET_NO":999,"REV_AT_EPOCH":22601,"BSTAR":5.592981e-6,"MEAN_MOTION_DOT":-2.5e-7,"MEAN_MOTION_DDOT":0},{"OBJECT_NAME":"DMSP 5D-2 F13 DEB","OBJECT_ID":"1995-015CL","EPOCH":"2026-03-07T08:03:19.694304","MEAN_MOTION":14.41453772,"ECCENTRICITY":0.00020775,"INCLINATION":98.68,"RA_OF_ASC_NODE":106.534,"ARG_OF_PERICENTER":273.3021,"MEAN_ANOMALY":86.793,"EPHEMERIS_TYPE":0,"CLASSIFICATION_TYPE":"U","NORAD_CAT_ID":40497,"ELEMENT_SET_NO":999,"REV_AT_EPOCH":57072,"BSTAR":0.0022242409,"MEAN_MOTION_DOT":7.177e-5,"MEAN_MOTION_DDOT":0}]
